CUBESAT XI-V            
1 28895U 05043F   26115.40187729  .00001332  00000+0  21784-3 0  9990
2 28895  98.2923 269.9383 0014310  18.3896 341.7825 14.72487588 93984
CLOUDSAT                
1 29107U 06016A   26115.97631972  .00001057  00000+0  12697-3 0  9991
2 29107  98.3976 150.3648 0006247 132.1735 228.0010 14.86285110 66754
CALIPSO                 
1 29108U 06016B   26115.92807219  .00000972  00000+0  17389-3 0  9994
2 29108  98.4499 129.8089 0001831  90.8092 269.3323 14.69249074 65389
HINODE (SOLAR-B)        
1 29479U 06041A   26115.79061109  .00000616  00000+0  11437-3 0  9991
2 29479  98.0580 132.7121 0018973  94.3749 265.9625 14.68544355 47184
METOP-A                 
1 29499U 06044A   26115.93793580  .00001947  00000+0  23048-3 0  9996
2 29499  98.3279 221.0246 0173514 235.7145 274.3188 14.75728447 17749
SHIJIAN-6 02B (SJ-6 02B)
1 29506U 06046B   26115.95898414  .00001595  00000+0  12887-3 0  9999
2 29506  97.7141 145.3467 0010975 240.5475 119.4654 15.01212188 62908
DMSP 5D-3 F17 (USA 191) 
1 29522U 06050A   26115.91380796  .00000105  00000+0  76728-4 0  9998
2 29522  98.7396 123.5512 0009634 198.9587 161.1230 14.14982478  5032
LAPAN-TUBSAT            
1 29709U 07001A   26115.93178567  .00000186  00000+0  27953-4 0  9990
2 29709  98.1351 113.9817 0012343   2.6068 357.5209 14.85892521 43396
HAIYANG-1B              
1 31113U 07010A   26115.84432965  .00000113  00000+0  58619-4 0  9990
2 31113  98.3476  99.7272 0013577   2.0453 358.0784 14.31013554993149
BEIDOU-2 M1             
1 31115U 07011A   26115.37898004 -.00000038  00000+0  00000+0 0  9994
2 31115  50.9482 221.0336 0001598  13.2566 346.7459  1.77349285 75213
CAPE-1                  
1 31130U 07012P   26115.84545242  .00001063  00000+0  19994-3 0  9991
2 31130  98.4432  88.9546 0082479 234.1164 125.2360 14.64754581 10691
CBERS 2B                
1 32062U 07042A   26115.83303707  .00000238  00000+0  86092-4 0  9993
2 32062  98.3891  61.4076 0031872 130.8509 284.0313 14.41446405977146
COSMO-SKYMED 2          
1 32376U 07059A   26115.97541193  .00000433  00000+0  60935-4 0  9992
2 32376  97.8885 300.3299 0001388  92.4793 267.6579 14.82159258994265
CARTOSAT-2A             
1 32783U 08021A   26115.89189287  .00000155  00000+0  27619-4 0  9990
2 32783  97.7682 166.3754 0010354 284.2020  75.8042 14.79168170971071
CUTE-1.7+APD II (CO-65) 
1 32785U 08021C   26115.93638928  .00006159  00000+0  39406-3 0  9994
2 32785  97.8257  96.2988 0008264 194.5101 165.5891 15.08945436977315
SEEDS II (CO-66)        
1 32791U 08021J   26115.94206132  .00021355  00000+0  71588-3 0  9992
2 32791  97.7532 111.4231 0004953 115.6257 244.5496 15.30926157979297
