[{"OBJECT_NAME":"CUBESAT XI-V","OBJECT_ID":"2005-043F","EPOCH":"2026-04-25T09:38:42.197856","MEAN_MOTION":14.72487588,"ECCENTRICITY":0.00143109,"INCLINATION":98.2923,"RA_OF_ASC_NODE":269.9383,"ARG_OF_PERICENTER":18.3896,"MEAN_ANOMALY":341.7825,"EPHEMERIS_TYPE":0,"CLASSIFICATION_TYPE":"U","NORAD_CAT_ID":28895,"ELEMENT_SET_NO":999,"REV_AT_EPOCH":9398,"BSTAR":0.00021784435,"MEAN_MOTION_DOT":1.332e-5,"MEAN_MOTION_DDOT":0},{"OBJECT_NAME":"CLOUDSAT","OBJECT_ID":"2006-016A","EPOCH":"2026-04-25T23:25:54.023808","MEAN_MOTION":14.8628511,"ECCENTRICITY":0.00062471,"INCLINATION":98.3976,"RA_OF_ASC_NODE":150.3648,"ARG_OF_PERICENTER":132.1735,"MEAN_ANOMALY":228.001,"EPHEMERIS_TYPE":0,"CLASSIFICATION_TYPE":"U","NORAD_CAT_ID":29107,"ELEMENT_SET_NO":999,"REV_AT_EPOCH":6675,"BSTAR":0.00012697308,"MEAN_MOTION_DOT":1.057e-5,"MEAN_MOTION_DDOT":0},{"OBJECT_NAME":"CALIPSO","OBJECT_ID":"2006-016B","EPOCH":"2026-04-25T22:16:25.437216","MEAN_MOTION":14.69249074,"ECCENTRICITY":0.00018319,"INCLINATION":98.4499,"RA_OF_ASC_NODE":129.8089,"ARG_OF_PERICENTER":90.8092,"MEAN_ANOMALY":269.3323,"EPHEMERIS_TYPE":0,"CLASSIFICATION_TYPE":"U","NORAD_CAT_ID":29108,"ELEMENT_SET_NO":999,"REV_AT_EPOCH":6538,"BSTAR":0.00017388778,"MEAN_MOTION_DOT":9.72e-6,"MEAN_MOTION_DDOT":0},{"OBJECT_NAME":"HINODE (SOLAR-B)","OBJECT_ID":"2006-041A","EPOCH":"2026-04-25T18:58:28.798176","MEAN_MOTION":14.68544355,"ECCENTRICITY":0.00189739,"INCLINATION":98.058,"RA_OF_ASC_NODE":132.7121,"ARG_OF_PERICENTER":94.3749,"MEAN_ANOMALY":265.9625,"EPHEMERIS_TYPE":0,"CLASSIFICATION_TYPE":"U","NORAD_CAT_ID":29479,"ELEMENT_SET_NO":999,"REV_AT_EPOCH":4718,"BSTAR":0.00011437471,"MEAN_MOTION_DOT":6.16e-6,"MEAN_MOTION_DDOT":0},{"OBJECT_NAME":"METOP-A","OBJECT_ID":"2006-044A","EPOCH":"2026-04-25T22:30:37.653120","MEAN_MOTION":14.75728447,"ECCENTRICITY":0.0173514,"INCLINATION":98.3279,"RA_OF_ASC_NODE":221.0246,"ARG_OF_PERICENTER":235.7145,"MEAN_ANOMALY":274.3188,"EPHEMERIS_TYPE":0,"CLASSIFICATION_TYPE":"U","NORAD_CAT_ID":29499,"ELEMENT_SET_NO":999,"REV_AT_EPOCH":1774,"BSTAR":0.00023047803,"MEAN_MOTION_DOT":1.947e-5,"MEAN_MOTION_DDOT":0},{"OBJECT_NAME":"SHIJIAN-6 02B (SJ-6 02B)","OBJECT_ID":"2006-046B","EPOCH":"2026-04-25T23:00:56.229696","MEAN_MOTION":15.01212188,"ECCENTRICITY":0.00109758,"INCLINATION":97.7141,"RA_OF_ASC_NODE":145.3467,"ARG_OF_PERICENTER":240.5475,"MEAN_ANOMALY":119.4654,"EPHEMERIS_TYPE":0,"CLASSIFICATION_TYPE":"U","NORAD_CAT_ID":29506,"ELEMENT_SET_NO":999,"REV_AT_EPOCH":6290,"BSTAR":0.0001288714,"MEAN_MOTION_DOT":1.595e-5,"MEAN_MOTION_DDOT":0},{"OBJECT_NAME":"DMSP 5D-3 F17 (USA 191)","OBJECT_ID":"2006-050A","EPOCH":"2026-04-25T21:55:53.007744","MEAN_MOTION":14.14982478,"ECCENTRICITY":0.00096347,"INCLINATION":98.7396,"RA_OF_ASC_NODE":123.5512,"ARG_OF_PERICENTER":198.9587,"MEAN_ANOMALY":161.123,"EPHEMERIS_TYPE":0,"CLASSIFICATION_TYPE":"U","NORAD_CAT_ID":29522,"ELEMENT_SET_NO":999,"REV_AT_EPOCH":503,"BSTAR":7.67283e-5,"MEAN_MOTION_DOT":1.05e-6,"MEAN_MOTION_DDOT":0},{"OBJECT_NAME":"LAPAN-TUBSAT","OBJECT_ID":"2007-001A","EPOCH":"2026-04-25T22:21:46.281888","MEAN_MOTION":14.85892521,"ECCENTRICITY":0.00123435,"INCLINATION":98.1351,"RA_OF_ASC_NODE":113.9817,"ARG_OF_PERICENTER":2.6068,"MEAN_ANOMALY":357.5209,"EPHEMERIS_TYPE":0,"CLASSIFICATION_TYPE":"U","NORAD_CAT_ID":29709,"ELEMENT_SET_NO":999,"REV_AT_EPOCH":4339,"BSTAR":2.795277e-5,"MEAN_MOTION_DOT":1.86e-6,"MEAN_MOTION_DDOT":0},{"OBJECT_NAME":"HAIYANG-1B","OBJECT_ID":"2007-010A","EPOCH":"2026-04-25T20:15:50.081760","MEAN_MOTION":14.31013554,"ECCENTRICITY":0.00135775,"INCLINATION":98.3476,"RA_OF_ASC_NODE":99.7272,"ARG_OF_PERICENTER":2.0453,"MEAN_ANOMALY":358.0784,"EPHEMERIS_TYPE":0,"CLASSIFICATION_TYPE":"U","NORAD_CAT_ID":31113,"ELEMENT_SET_NO":999,"REV_AT_EPOCH":99314,"BSTAR":5.8619088e-5,"MEAN_MOTION_DOT":1.13e-6,"MEAN_MOTION_DDOT":0},{"OBJECT_NAME":"BEIDOU-2 M1","OBJECT_ID":"2007-011A","EPOCH":"2026-04-25T09:05:43.875456","MEAN_MOTION":1.77349285,"ECCENTRICITY":0.00015987,"INCLINATION":50.9482,"RA_OF_ASC_NODE":221.0336,"ARG_OF_PERICENTER":13.2566,"MEAN_ANOMALY":346.7459,"EPHEMERIS_TYPE":0,"CLASSIFICATION_TYPE":"U","NORAD_CAT_ID":31115,"ELEMENT_SET_NO":999,"REV_AT_EPOCH":7521,"BSTAR":0,"MEAN_MOTION_DOT":-3.8e-7,"MEAN_MOTION_DDOT":0},{"OBJECT_NAME":"CAPE-1","OBJECT_ID":"2007-012P","EPOCH":"2026-04-25T20:17:27.089088","MEAN_MOTION":14.64754581,"ECCENTRICITY":0.00824792,"INCLINATION":98.4432,"RA_OF_ASC_NODE":88.9546,"ARG_OF_PERICENTER":234.1164,"MEAN_ANOMALY":125.236,"EPHEMERIS_TYPE":0,"CLASSIFICATION_TYPE":"U","NORAD_CAT_ID":31130,"ELEMENT_SET_NO":999,"REV_AT_EPOCH":1069,"BSTAR":0.00019993797,"MEAN_MOTION_DOT":1.063e-5,"MEAN_MOTION_DDOT":0},{"OBJECT_NAME":"CBERS 2B","OBJECT_ID":"2007-042A","EPOCH":"2026-04-25T19:59:34.402848","MEAN_MOTION":14.41446405,"ECCENTRICITY":0.00318727,"INCLINATION":98.3891,"RA_OF_ASC_NODE":61.4076,"ARG_OF_PERICENTER":130.8509,"MEAN_ANOMALY":284.0313,"EPHEMERIS_TYPE":0,"CLASSIFICATION_TYPE":"U","NORAD_CAT_ID":32062,"ELEMENT_SET_NO":999,"REV_AT_EPOCH":97714,"BSTAR":8.6091861e-5,"MEAN_MOTION_DOT":2.38e-6,"MEAN_MOTION_DDOT":0},{"OBJECT_NAME":"COSMO-SKYMED 2","OBJECT_ID":"2007-059A","EPOCH":"2026-04-25T23:24:35.590752","MEAN_MOTION":14.82159258,"ECCENTRICITY":0.00013884,"INCLINATION":97.8885,"RA_OF_ASC_NODE":300.3299,"ARG_OF_PERICENTER":92.4793,"MEAN_ANOMALY":267.6579,"EPHEMERIS_TYPE":0,"CLASSIFICATION_TYPE":"U","NORAD_CAT_ID":32376,"ELEMENT_SET_NO":999,"REV_AT_EPOCH":99426,"BSTAR":6.0934624e-5,"MEAN_MOTION_DOT":4.33e-6,"MEAN_MOTION_DDOT":0},{"OBJECT_NAME":"CARTOSAT-2A","OBJECT_ID":"2008-021A","EPOCH":"2026-04-25T21:24:19.543968","MEAN_MOTION":14.7916817,"ECCENTRICITY":0.00103547,"INCLINATION":97.7682,"RA_OF_ASC_NODE":166.3754,"ARG_OF_PERICENTER":284.202,"MEAN_ANOMALY":75.8042,"EPHEMERIS_TYPE":0,"CLASSIFICATION_TYPE":"U","NORAD_CAT_ID":32783,"ELEMENT_SET_NO":999,"REV_AT_EPOCH":97107,"BSTAR":2.7618591e-5,"MEAN_MOTION_DOT":1.55e-6,"MEAN_MOTION_DDOT":0},{"OBJECT_NAME":"CUTE-1.7+APD II (CO-65)","OBJECT_ID":"2008-021C","EPOCH":"2026-04-25T22:28:24.033792","MEAN_MOTION":15.08945436,"ECCENTRICITY":0.00082642,"INCLINATION":97.8257,"RA_OF_ASC_NODE":96.2988,"ARG_OF_PERICENTER":194.5101,"MEAN_ANOMALY":165.5891,"EPHEMERIS_TYPE":0,"CLASSIFICATION_TYPE":"U","NORAD_CAT_ID":32785,"ELEMENT_SET_NO":999,"REV_AT_EPOCH":97731,"BSTAR":0.00039405832,"MEAN_MOTION_DOT":6.159e-5,"MEAN_MOTION_DDOT":0},{"OBJECT_NAME":"SEEDS II (CO-66)","OBJECT_ID":"2008-021J","EPOCH":"2026-04-25T22:36:34.098048","MEAN_MOTION":15.30926157,"ECCENTRICITY":0.00049533,"INCLINATION":97.7532,"RA_OF_ASC_NODE":111.4231,"ARG_OF_PERICENTER":115.6257,"MEAN_ANOMALY":244.5496,"EPHEMERIS_TYPE":0,"CLASSIFICATION_TYPE":"U","NORAD_CAT_ID":32791,"ELEMENT_SET_NO":999,"REV_AT_EPOCH":97929,"BSTAR":0.00071587552,"MEAN_MOTION_DOT":0.00021355,"MEAN_MOTION_DDOT":0}]
